SWARM A                 
1 39452U 13067B   26166.47755372  .00009228  00000+0  15874-3 0  9999
2 39452  87.3329  56.8775 0003010  94.7541 265.4064 15.50925583705988
SWARM C                 
1 39453U 13067C   26166.47743905  .00009463  00000+0  16281-3 0  9993
2 39453  87.3328  55.4585 0002995  93.0571 267.1033 15.50924123705948
BRITE-CA1 (TORONTO)     
1 40020U 14033L   26166.33917075  .00000597  00000+0  97618-4 0  9998
2 40020  97.9736 295.3012 0077245 283.0419  76.2174 14.72674284641949
OCO 2                   
1 40059U 14035A   26166.50741152  .00000341  00000+0  85630-4 0  9990
2 40059  98.2018 107.8260 0001501  85.7854 274.3516 14.57110017635803
BRITE-PL2 (HEWELIUSZ)   
1 40119U 14049B   26166.29777389  .00001359  00000+0  13089-3 0  9997
2 40119  97.9096 278.2832 0015224 114.0820 246.1994 14.94587421641167
MMS 1                   
1 40482U 15011A   26166.58335647 -.00000664  00000+0  00000+0 0  9993
2 40482  72.1893 348.7777 8322193 167.4000 134.8491  0.28355207  1372
MMS 2                   
1 40483U 15011B   26166.58335647 -.00000664  00000+0  00000+0 0  9994
2 40483  72.1895 348.7799 8322977 167.4057 134.8377  0.28355228  1377
MMS 3                   
1 40484U 15011C   26166.58335647 -.00000664  00000+0  00000+0 0  9995
2 40484  72.1886 348.7802 8321769 167.4080 134.8220  0.28355180  1371
MMS 4                   
1 40485U 15011D   26166.58335647 -.00000664  00000+0  00000+0 0  9996
2 40485  72.1886 348.7802 8321769 167.4080 134.8220  0.28355180  1372
ASTROSAT                
1 40930U 15052A   26166.47691544  .00001441  00000+0  93726-4 0  9990
2 40930   5.9956 167.6628 0007815   6.2913 353.7313 14.82504768579573
DAMPE                   
1 41173U 15078A   26166.53420546  .00001705  00000+0  59798-4 0  9991
2 41173  97.4551 171.9928 0013814  82.1811 278.0998 15.30783578584292
PISAT                   
1 41784U 16059B   26166.50923541  .00000736  00000+0  13293-3 0  9991
2 41784  97.8179 167.0341 0028238 208.2747 151.6928 14.68980953519495
HXMT (HUIYAN)           
1 42758U 17034A   26166.48988441  .00002568  00000+0  13257-3 0  9999
2 42758  43.0126 192.4924 0030425 136.0448 224.2827 15.18468972497407
FLYING LAPTOP           
1 42831U 17042G   26166.51907706  .00003525  00000+0  27856-3 0  9993
2 42831  97.4672 322.1159 0019506 127.1002 233.2009 15.01137353486200
ZHANGHENG 1-01 (CSES-1) 
1 43194U 18015C   26166.55987234  .00005860  00000+0  26821-3 0  9990
2 43194  97.6864 332.1848 0017033 272.5447  87.3838 15.20793469464396
SALSAT                  
1 46495U 20068K   26166.51026536  .00006457  00000+0  22659-3 0  9991
2 46495  97.8844 169.4726 0008149 315.3702  44.6880 15.29779241315105
IXPE                    
1 49954U 21121A   26166.50002315  .00008410  00000+0  44411-3 0  9994
2 49954   0.2310 330.5936 0007498  51.5422  64.2598 15.10240278  5925
SMILE                   
1 69123U 26109A   26144.65318427 -.00001976  00000+0 -42379-3 0  9994
2 69123  70.0007 229.2745 0009123 259.5159 100.4951 14.57062785   802
