OBJECT_NAME,OBJECT_ID,EPOCH,MEAN_MOTION,ECCENTRICITY,INCLINATION,RA_OF_ASC_NODE,ARG_OF_PERICENTER,MEAN_ANOMALY,EPHEMERIS_TYPE,CLASSIFICATION_TYPE,NORAD_CAT_ID,ELEMENT_SET_NO,REV_AT_EPOCH,BSTAR,MEAN_MOTION_DOT,MEAN_MOTION_DDOT
SWARM A,2013-067B,2026-06-15T11:27:40.641408,15.50925583,.000301,87.3329,56.8775,94.7541,265.4064,0,U,39452,999,70598,.15874E-3,.9228E-4,0
SWARM C,2013-067C,2026-06-15T11:27:30.733920,15.50924123,.0002995,87.3328,55.4585,93.0571,267.1033,0,U,39453,999,70594,.16281E-3,.9463E-4,0
BRITE-CA1 (TORONTO),2014-033L,2026-06-15T08:08:24.352800,14.72674284,.0077245,97.9736,295.3012,283.0419,76.2174,0,U,40020,999,64194,.97618E-4,.597E-5,0
OCO 2,2014-035A,2026-06-15T12:10:40.355328,14.57110017,.0001501,98.2018,107.8260,85.7854,274.3516,0,U,40059,999,63580,.8563E-4,.341E-5,0
BRITE-PL2 (HEWELIUSZ),2014-049B,2026-06-15T07:08:47.664096,14.94587421,.0015224,97.9096,278.2832,114.0820,246.1994,0,U,40119,999,64116,.13089E-3,.1359E-4,0
MMS 1,2015-011A,2026-06-15T14:00:01.999008,0.28355207,.8322193,72.1893,348.7777,167.4000,134.8491,0,U,40482,999,137,0,-.664E-5,0
MMS 2,2015-011B,2026-06-15T14:00:01.999008,0.28355228,.8322977,72.1895,348.7799,167.4057,134.8377,0,U,40483,999,137,0,-.664E-5,0
MMS 3,2015-011C,2026-06-15T14:00:01.999008,0.28355180,.8321769,72.1886,348.7802,167.4080,134.8220,0,U,40484,999,137,0,-.664E-5,0
MMS 4,2015-011D,2026-06-15T14:00:01.999008,0.28355180,.8321769,72.1886,348.7802,167.4080,134.8220,0,U,40485,999,137,0,-.664E-5,0
ASTROSAT,2015-052A,2026-06-15T11:26:45.494016,14.82504768,.0007815,5.9956,167.6628,6.2913,353.7313,0,U,40930,999,57957,.93726E-4,.1441E-4,0
DAMPE,2015-078A,2026-06-15T12:49:15.351744,15.30783578,.0013814,97.4551,171.9928,82.1811,278.0998,0,U,41173,999,58429,.59798E-4,.1705E-4,0
PISAT,2016-059B,2026-06-15T12:13:17.939424,14.68980953,.0028238,97.8179,167.0341,208.2747,151.6928,0,U,41784,999,51949,.13293E-3,.736E-5,0
HXMT (HUIYAN),2017-034A,2026-06-15T11:45:26.013024,15.18468972,.0030425,43.0126,192.4924,136.0448,224.2827,0,U,42758,999,49740,.13257E-3,.2568E-4,0
FLYING LAPTOP,2017-042G,2026-06-15T12:27:28.257984,15.01137353,.0019506,97.4672,322.1159,127.1002,233.2009,0,U,42831,999,48620,.27856E-3,.3525E-4,0
ZHANGHENG 1-01 (CSES-1),2018-015C,2026-06-15T13:26:12.970176,15.20793469,.0017033,97.6864,332.1848,272.5447,87.3838,0,U,43194,999,46439,.26821E-3,.586E-4,0
SALSAT,2020-068K,2026-06-15T12:14:46.927104,15.29779241,.0008149,97.8844,169.4726,315.3702,44.6880,0,U,46495,999,31510,.22659E-3,.6457E-4,0
IXPE,2021-121A,2026-06-15T12:00:02.000160,15.10240278,.0007498,0.2310,330.5936,51.5422,64.2598,0,U,49954,999,592,.44411E-3,.841E-4,0
SMILE,2026-109A,2026-05-24T15:40:35.120928,14.57062785,.00091232,70.0007,229.2745,259.5159,100.4951,0,U,69123,999,80,-.42378883E-3,-.1976E-4,0
